start=new Date('2021-10-18T00:00:00.000Z').valueOf();
sats=[{"REV_AT_EPOCH":"4994","MEAN_MOTION_DDOT":"0.0000000000000","OBJECT_TYPE":"PAYLOAD","RA_OF_ASC_NODE":"309.0559","RCS_SIZE":"LARGE","ELEMENT_SET_NO":"999","TLE_LINE1":"1 47139U 20088T   21290.28836174  .00002942  00000-0  21636-3 0  9993","BSTAR":"0.00021636000000","TIME_SYSTEM":"UTC","REF_FRAME":"TEME","SITE":"AFETR","TLE_LINE2":"2 47139  53.0545 309.0559 0001117  84.7584 275.3532 15.06394732 49948","CENTER_NAME":"EARTH","PERIOD":"95.592","SEMIMAJOR_AXIS":"6925.365","INCLINATION":"53.0545","CLASSIFICATION_TYPE":"U","OBJECT_NAME":"STARLINK-1852","COUNTRY_CODE":"US","LAUNCH_DATE":"2020-11-25","GP_ID":"187443984","PERIAPSIS":"546.456","NORAD_CAT_ID":"47139","MEAN_ELEMENT_THEORY":"SGP4","MEAN_MOTION":"15.06394732","FILE":"3168566","ARG_OF_PERICENTER":"84.7584","DECAY_DATE":null,"MEAN_MOTION_DOT":"0.00002942","MEAN_ANOMALY":"275.3532","EPHEMERIS_TYPE":"0","OBJECT_ID":"2020-088T","EPOCH":"2021-10-17T06:55:14.454336","ECCENTRICITY":"0.00011170","APOAPSIS":"548.003"},{"SEMIMAJOR_AXIS":"6732.795","TLE_LINE1":"1 47140U 20088U   21290.25057034 -.00047537  00000-0 -36156-3 0  9996","BSTAR":"-0.00036156000000","TIME_SYSTEM":"UTC","REF_FRAME":"TEME","SITE":"AFETR","TLE_LINE2":"2 47140  53.0505 270.7787 0003450   0.9048 359.1975 15.71482823 50484","PERIOD":"91.633","CENTER_NAME":"EARTH","RCS_SIZE":"LARGE","ELEMENT_SET_NO":"999","REV_AT_EPOCH":"5048","MEAN_MOTION_DDOT":"0.0000000000000","RA_OF_ASC_NODE":"270.7787","OBJECT_TYPE":"PAYLOAD","ARG_OF_PERICENTER":"0.9048","FILE":"3168566","DECAY_DATE":null,"MEAN_MOTION_DOT":"-0.00047537","EPHEMERIS_TYPE":"0","MEAN_ANOMALY":"359.1975","OBJECT_ID":"2020-088U","EPOCH":"2021-10-17T06:00:49.277376","ECCENTRICITY":"0.00034500","APOAPSIS":"356.983","GP_ID":"187444234","PERIAPSIS":"352.338","NORAD_CAT_ID":"47140","MEAN_ELEMENT_THEORY":"SGP4","MEAN_MOTION":"15.71482823","OBJECT_NAME":"STARLINK-1853","COUNTRY_CODE":"US","LAUNCH_DATE":"2020-11-25","INCLINATION":"53.0505","CLASSIFICATION_TYPE":"U"},{"RCS_SIZE":"LARGE","ELEMENT_SET_NO":"999","OBJECT_TYPE":"PAYLOAD","RA_OF_ASC_NODE":"293.9391","REV_AT_EPOCH":"5016","MEAN_MOTION_DDOT":"0.0000000000000","SEMIMAJOR_AXIS":"6925.383","SITE":"AFETR","TLE_LINE2":"2 47141  53.0547 293.9391 0001307  75.6849 284.4285 15.06388695 50165","PERIOD":"95.593","CENTER_NAME":"EARTH","TLE_LINE1":"1 47141U 20088V   21290.29989495 -.00000439  00000-0 -10580-4 0  9990","BSTAR":"-0.00001058000000","TIME_SYSTEM":"UTC","REF_FRAME":"TEME","LAUNCH_DATE":"2020-11-25","OBJECT_NAME":"STARLINK-1854","COUNTRY_CODE":"US","INCLINATION":"53.0547","CLASSIFICATION_TYPE":"U","OBJECT_ID":"2020-088V","EPOCH":"2021-10-17T07:11:50.923680","ECCENTRICITY":"0.00013070","APOAPSIS":"548.153","ARG_OF_PERICENTER":"75.6849","FILE":"3168566","DECAY_DATE":null,"MEAN_MOTION_DOT":"-0.00000439","MEAN_ANOMALY":"284.4285","EPHEMERIS_TYPE":"0","MEAN_MOTION":"15.06388695","MEAN_ELEMENT_THEORY":"SGP4","GP_ID":"187444986","PERIAPSIS":"546.343","NORAD_CAT_ID":"47141"},{"ELEMENT_SET_NO":"999","RCS_SIZE":"LARGE","OBJECT_TYPE":"PAYLOAD","RA_OF_ASC_NODE":"294.0755","MEAN_MOTION_DDOT":"0.0000000000000","REV_AT_EPOCH":"5015","SEMIMAJOR_AXIS":"6925.374","TLE_LINE2":"2 47143  53.0545 294.0755 0001591  78.3687 281.7480 15.06391557 50153","PERIOD":"95.593","CENTER_NAME":"EARTH","SITE":"AFETR","TIME_SYSTEM":"UTC","REF_FRAME":"TEME","TLE_LINE1":"1 47143U 20088X   21290.28147613  .00001458  00000-0  11678-3 0  9997","BSTAR":"0.00011678000000","LAUNCH_DATE":"2020-11-25","OBJECT_NAME":"STARLINK-1856","COUNTRY_CODE":"US","CLASSIFICATION_TYPE":"U","INCLINATION":"53.0545","EPOCH":"2021-10-17T06:45:19.537632","ECCENTRICITY":"0.00015910","APOAPSIS":"548.341","OBJECT_ID":"2020-088X","MEAN_MOTION_DOT":"0.00001458","EPHEMERIS_TYPE":"0","MEAN_ANOMALY":"281.7480","ARG_OF_PERICENTER":"78.3687","FILE":"3168566","DECAY_DATE":null,"MEAN_MOTION":"15.06391557","PERIAPSIS":"546.138","GP_ID":"187445736","NORAD_CAT_ID":"47143","MEAN_ELEMENT_THEORY":"SGP4"},{"LAUNCH_DATE":"2020-11-25","OBJECT_NAME":"STARLINK-1857","COUNTRY_CODE":"US","CLASSIFICATION_TYPE":"U","INCLINATION":"53.0553","ECCENTRICITY":"0.00014150","EPOCH":"2021-10-17T06:25:25.921632","APOAPSIS":"548.246","OBJECT_ID":"2020-088Y","MEAN_MOTION_DOT":"0.00001455","MEAN_ANOMALY":"289.5222","EPHEMERIS_TYPE":"0","ARG_OF_PERICENTER":"70.5920","FILE":"3168566","DECAY_DATE":null,"MEAN_MOTION":"15.06383015","PERIAPSIS":"546.286","GP_ID":"187444484","NORAD_CAT_ID":"47144","MEAN_ELEMENT_THEORY":"SGP4","ELEMENT_SET_NO":"999","RCS_SIZE":"LARGE","OBJECT_TYPE":"PAYLOAD","RA_OF_ASC_NODE":"284.1453","MEAN_MOTION_DDOT":"0.0000000000000","REV_AT_EPOCH":"5029","SEMIMAJOR_AXIS":"6925.401","TLE_LINE2":"2 47144  53.0553 284.1453 0001415  70.5920 289.5222 15.06383015 50292","PERIOD":"95.593","CENTER_NAME":"EARTH","SITE":"AFETR","TIME_SYSTEM":"UTC","REF_FRAME":"TEME","TLE_LINE1":"1 47144U 20088Y   21290.26766113  .00001455  00000-0  11663-3 0  9999","BSTAR":"0.00011663000000"},{"MEAN_ANOMALY":"261.8253","EPHEMERIS_TYPE":"0","MEAN_MOTION_DOT":"0.00003450","DECAY_DATE":null,"FILE":"3168566","ARG_OF_PERICENTER":"98.3373","APOAPSIS":"551.109","ECCENTRICITY":"0.00056170","EPOCH":"2021-10-17T06:14:47.885280","OBJECT_ID":"2020-088Z","GP_ID":"187444734","NORAD_CAT_ID":"47145","PERIAPSIS":"543.329","MEAN_ELEMENT_THEORY":"SGP4","MEAN_MOTION":"15.06398167","COUNTRY_CODE":"US","OBJECT_NAME":"STARLINK-1858","LAUNCH_DATE":"2020-11-25","CLASSIFICATION_TYPE":"U","INCLINATION":"53.0534","SEMIMAJOR_AXIS":"6925.354","REF_FRAME":"TEME","TIME_SYSTEM":"UTC","BSTAR":"0.00025042000000","TLE_LINE1":"1 47145U 20088Z   21290.26027645  .00003450  00000-0  25042-3 0  9993","CENTER_NAME":"EARTH","PERIOD":"95.592","TLE_LINE2":"2 47145  53.0534 284.1689 0005617  98.3373 261.8253 15.06398167 50292","SITE":"AFETR","ELEMENT_SET_NO":"999","RCS_SIZE":"LARGE","MEAN_MOTION_DDOT":"0.0000000000000","REV_AT_EPOCH":"5029","RA_OF_ASC_NODE":"284.1689","OBJECT_TYPE":"PAYLOAD"},{"INCLINATION":"53.0560","CLASSIFICATION_TYPE":"U","LAUNCH_DATE":"2020-11-25","COUNTRY_CODE":"US","OBJECT_NAME":"STARLINK-1859","MEAN_MOTION":"15.06391488","PERIAPSIS":"546.314","GP_ID":"187445486","NORAD_CAT_ID":"47146","MEAN_ELEMENT_THEORY":"SGP4","OBJECT_ID":"2020-088AA","APOAPSIS":"548.165","EPOCH":"2021-10-17T06:57:14.351616","ECCENTRICITY":"0.00013360","DECAY_DATE":null,"ARG_OF_PERICENTER":"89.7252","FILE":"3168566","EPHEMERIS_TYPE":"0","MEAN_ANOMALY":"270.3890","MEAN_MOTION_DOT":"0.00003172","RA_OF_ASC_NODE":"314.0503","OBJECT_TYPE":"PAYLOAD","REV_AT_EPOCH":"4987","MEAN_MOTION_DDOT":"0.0000000000000","RCS_SIZE":"LARGE","ELEMENT_SET_NO":"999","SITE":"AFETR","CENTER_NAME":"EARTH","PERIOD":"95.593","TLE_LINE2":"2 47146  53.0560 314.0503 0001336  89.7252 270.3890 15.06391488 49877","BSTAR":"0.00023181000000","TLE_LINE1":"1 47146U 20088AA  21290.28974944  .00003172  00000-0  23181-3 0  9992","REF_FRAME":"TEME","TIME_SYSTEM":"UTC","SEMIMAJOR_AXIS":"6925.375"},{"SITE":"AFETR","CENTER_NAME":"EARTH","PERIOD":"95.593","TLE_LINE2":"2 47147  53.0546 304.0533 0001425  75.7598 284.3549 15.06393794 50028","BSTAR":"0.00013964000000","TLE_LINE1":"1 47147U 20088AB  21290.29160454  .00001799  00000-0  13964-3 0  9998","REF_FRAME":"TEME","TIME_SYSTEM":"UTC","SEMIMAJOR_AXIS":"6925.368","OBJECT_TYPE":"PAYLOAD","RA_OF_ASC_NODE":"304.0533","REV_AT_EPOCH":"5002","MEAN_MOTION_DDOT":"0.0000000000000","RCS_SIZE":"LARGE","ELEMENT_SET_NO":"999","MEAN_MOTION":"15.06393794","GP_ID":"187445237","NORAD_CAT_ID":"47147","PERIAPSIS":"546.246","MEAN_ELEMENT_THEORY":"SGP4","OBJECT_ID":"2020-088AB","APOAPSIS":"548.219","EPOCH":"2021-10-17T06:59:54.632256","ECCENTRICITY":"0.00014250","DECAY_DATE":null,"ARG_OF_PERICENTER":"75.7598","FILE":"3168566","EPHEMERIS_TYPE":"0","MEAN_ANOMALY":"284.3549","MEAN_MOTION_DOT":"0.00001799","INCLINATION":"53.0546","CLASSIFICATION_TYPE":"U","LAUNCH_DATE":"2020-11-25","COUNTRY_CODE":"US","OBJECT_NAME":"STARLINK-1860"},{"RCS_SIZE":"LARGE","ELEMENT_SET_NO":"999","OBJECT_TYPE":"PAYLOAD","RA_OF_ASC_NODE":"294.1483","REV_AT_EPOCH":"5015","MEAN_MOTION_DDOT":"0.0000000000000","SEMIMAJOR_AXIS":"6925.394","SITE":"AFETR","TLE_LINE2":"2 47148  53.0561 294.1483 0001401  82.3078 277.8070 15.06385274 50154","PERIOD":"95.593","CENTER_NAME":"EARTH","TLE_LINE1":"1 47148U 20088AC  21290.26674325  .00000977  00000-0  84517-4 0  9993","BSTAR":"0.00008451700000","TIME_SYSTEM":"UTC","REF_FRAME":"TEME","LAUNCH_DATE":"2020-11-25","OBJECT_NAME":"STARLINK-1861","COUNTRY_CODE":"US","INCLINATION":"53.0561","CLASSIFICATION_TYPE":"U","OBJECT_ID":"2020-088AC","EPOCH":"2021-10-17T06:24:06.616800","ECCENTRICITY":"0.00014010","APOAPSIS":"548.229","FILE":"3168566","ARG_OF_PERICENTER":"82.3078","DECAY_DATE":null,"MEAN_MOTION_DOT":"0.00000977","EPHEMERIS_TYPE":"0","MEAN_ANOMALY":"277.8070","MEAN_MOTION":"15.06385274","GP_ID":"187443985","NORAD_CAT_ID":"47148","PERIAPSIS":"546.288","MEAN_ELEMENT_THEORY":"SGP4"},{"APOAPSIS":"548.181","ECCENTRICITY":"0.00013880","EPOCH":"2021-10-17T07:05:12.037344","OBJECT_ID":"2020-088AD","EPHEMERIS_TYPE":"0","MEAN_ANOMALY":"278.6318","MEAN_MOTION_DOT":"0.00001356","DECAY_DATE":null,"ARG_OF_PERICENTER":"81.4828","FILE":"3168566","MEAN_MOTION":"15.06397850","NORAD_CAT_ID":"47149","GP_ID":"187444235","PERIAPSIS":"546.259","MEAN_ELEMENT_THEORY":"SGP4","LAUNCH_DATE":"2020-11-25","COUNTRY_CODE":"US","OBJECT_NAME":"STARLINK-1862","CLASSIFICATION_TYPE":"U","INCLINATION":"53.0541","SEMIMAJOR_AXIS":"6925.355","PERIOD":"95.592","CENTER_NAME":"EARTH","TLE_LINE2":"2 47149  53.0541 304.0330 0001388  81.4828 278.6318 15.06397850 50755","SITE":"AFETR","REF_FRAME":"TEME","TIME_SYSTEM":"UTC","BSTAR":"0.00010991000000","TLE_LINE1":"1 47149U 20088AD  21290.29527821  .00001356  00000-0  10991-3 0  9991","ELEMENT_SET_NO":"999","RCS_SIZE":"LARGE","OBJECT_TYPE":"PAYLOAD","RA_OF_ASC_NODE":"304.0330","MEAN_MOTION_DDOT":"0.0000000000000","REV_AT_EPOCH":"5075"}];
